{"type": "FeatureCollection", "features": [ {"type": "Feature", "properties": {"norad_id": 34637, "name": "COSMOS 2251 DEB", "group": "cosmos-2251-debris", "lat": 41.20616781814674, "lon": 92.38049464185394, "alt_km": 695.7973906138186, "timestamp": "2025-12-24T22:42:22.428979+00:00", "meta": {"OBJECT_NAME": "COSMOS 2251 DEB", "OBJECT_ID": "1993-036XJ", "EPOCH": "2025-12-24T06:20:40.333344", "MEAN_MOTION": 14.60191382, "ECCENTRICITY": 0.00488997, "INCLINATION": 74.05, "RA_OF_ASC_NODE": 79.1778, "ARG_OF_PERICENTER": 146.5814, "MEAN_ANOMALY": 275.084, "EPHEMERIS_TYPE": 0, "CLASSIFICATION_TYPE": "U", "NORAD_CAT_ID": 34637, "ELEMENT_SET_NO": 999, "REV_AT_EPOCH": 88695, "BSTAR": 0.00088136273, "MEAN_MOTION_DOT": 4.291e-05, "MEAN_MOTION_DDOT": 0}, "tle": {"line1": "1 34637U 93036XJ  25358.26435571  .00004291  00000+0  88136-3 0  9994", "line2": "2 34637  74.0500  79.1778 0048899 146.5814 275.0840 14.60191382886954"}}, "geometry": {"type": "Point", "coordinates": [92.38049464185394, 41.20616781814674]}}, {"type": "Feature", "properties": {"norad_id": 34641, "name": "COSMOS 2251 DEB", "group": "cosmos-2251-debris", "lat": 37.62443384841485, "lon": 71.2900871812435, "alt_km": 710.8182196056923, "timestamp": "2025-12-24T22:42:22.428989+00:00", "meta": {"OBJECT_NAME": "COSMOS 2251 DEB", "OBJECT_ID": "1993-036XN", "EPOCH": "2025-12-23T22:32:56.853024", "MEAN_MOTION": 14.52074303, "ECCENTRICITY": 0.0019071, "INCLINATION": 73.8374, "RA_OF_ASC_NODE": 60.292, "ARG_OF_PERICENTER": 332.9719, "MEAN_ANOMALY": 206.7936, "EPHEMERIS_TYPE": 0, "CLASSIFICATION_TYPE": "U", "NORAD_CAT_ID": 34641, "ELEMENT_SET_NO": 999, "REV_AT_EPOCH": 88418, "BSTAR": 0.00077881, "MEAN_MOTION_DOT": 3.13e-05, "MEAN_MOTION_DDOT": 0}, "tle": {"line1": "1 34641U 93036XN  25357.93954691  .00003130  00000+0  77881-3 0  9997", "line2": "2 34641  73.8374  60.2920 0019071 332.9719 206.7936 14.52074303884184"}}, "geometry": {"type": "Point", "coordinates": [71.2900871812435, 37.62443384841485]}}, {"type": "Feature", "properties": {"norad_id": 34642, "name": "COSMOS 2251 DEB", "group": "cosmos-2251-debris", "lat": -43.808874227750735, "lon": -57.312337698371095, "alt_km": 1053.759006677752, "timestamp": "2025-12-24T22:42:22.428999+00:00", "meta": {"OBJECT_NAME": "COSMOS 2251 DEB", "OBJECT_ID": "1993-036XP", "EPOCH": "2025-12-22T21:18:46.794240", "MEAN_MOTION": 13.99000221, "ECCENTRICITY": 0.02065395, "INCLINATION": 74.0044, "RA_OF_ASC_NODE": 322.2225, "ARG_OF_PERICENTER": 139.6532, "MEAN_ANOMALY": 253.1213, "EPHEMERIS_TYPE": 0, "CLASSIFICATION_TYPE": "U", "NORAD_CAT_ID": 34642, "ELEMENT_SET_NO": 999, "REV_AT_EPOCH": 85435, "BSTAR": 0.00078596345, "MEAN_MOTION_DOT": 1.341e-05, "MEAN_MOTION_DDOT": 0}, "tle": {"line1": "1 34642U 93036XP  25356.88804160  .00001341  00000+0  78596-3 0  9992", "line2": "2 34642  74.0044 322.2225 0206539 139.6532 253.1213 13.99000221854351"}}, "geometry": {"type": "Point", "coordinates": [-57.312337698371095, -43.808874227750735]}}, {"type": "Feature", "properties": {"norad_id": 34671, "name": "COSMOS 2251 DEB", "group": "cosmos-2251-debris", "lat": 71.75135033183855, "lon": 171.03363634455525, "alt_km": 665.5352425030696, "timestamp": "2025-12-24T22:42:22.429010+00:00", "meta": {"OBJECT_NAME": "COSMOS 2251 DEB", "OBJECT_ID": "1993-036XR", "EPOCH": "2025-12-23T01:02:34.173312", "MEAN_MOTION": 14.67102739, "ECCENTRICITY": 0.00106686, "INCLINATION": 74.0274, "RA_OF_ASC_NODE": 114.4027, "ARG_OF_PERICENTER": 195.4789, "MEAN_ANOMALY": 280.8159, "EPHEMERIS_TYPE": 0, "CLASSIFICATION_TYPE": "U", "NORAD_CAT_ID": 34671, "ELEMENT_SET_NO": 999, "REV_AT_EPOCH": 88448, "BSTAR": 0.0017957882, "MEAN_MOTION_DOT": 0.0001008, "MEAN_MOTION_DDOT": 0}, "tle": {"line1": "1 34671U 93036XR  25357.04345108  .00010080  00000+0  17958-2 0  9999", "line2": "2 34671  74.0274 114.4027 0010668 195.4789 280.8159 14.67102739884485"}}, "geometry": {"type": "Point", "coordinates": [171.03363634455525, 71.75135033183855]}}, {"type": "Feature", "properties": {"norad_id": 34672, "name": "COSMOS 2251 DEB", "group": "cosmos-2251-debris", "lat": -3.619351267218118, "lon": -77.87365934600793, "alt_km": 756.0654757558768, "timestamp": "2025-12-24T22:42:22.429020+00:00", "meta": {"OBJECT_NAME": "COSMOS 2251 DEB", "OBJECT_ID": "1993-036XS", "EPOCH": "2025-12-23T01:39:52.431840", "MEAN_MOTION": 14.36424251, "ECCENTRICITY": 0.00243004, "INCLINATION": 74.0343, "RA_OF_ASC_NODE": 286.6106, "ARG_OF_PERICENTER": 356.389, "MEAN_ANOMALY": 18.9966, "EPHEMERIS_TYPE": 0, "CLASSIFICATION_TYPE": "U", "NORAD_CAT_ID": 34672, "ELEMENT_SET_NO": 999, "REV_AT_EPOCH": 65326, "BSTAR": 0.00025150328, "MEAN_MOTION_DOT": 7.13e-06, "MEAN_MOTION_DDOT": 0}, "tle": {"line1": "1 34672U 93036XS  25357.06935685  .00000713  00000+0  25150-3 0  9993", "line2": "2 34672  74.0343 286.6106 0024300 356.3890  18.9966 14.36424251653260"}}, "geometry": {"type": "Point", "coordinates": [-77.87365934600793, -3.619351267218118]}}, {"type": "Feature", "properties": {"norad_id": 34678, "name": "COSMOS 2251 DEB", "group": "cosmos-2251-debris", "lat": -71.32456311853694, "lon": -138.63574082824707, "alt_km": 809.5378374050642, "timestamp": "2025-12-24T22:42:22.429031+00:00", "meta": {"OBJECT_NAME": "COSMOS 2251 DEB", "OBJECT_ID": "1993-036XY", "EPOCH": "2025-12-24T03:36:15.971040", "MEAN_MOTION": 14.30066978, "ECCENTRICITY": 0.00247719, "INCLINATION": 74.0378, "RA_OF_ASC_NODE": 344.9472, "ARG_OF_PERICENTER": 30.5508, "MEAN_ANOMALY": 93.9544, "EPHEMERIS_TYPE": 0, "CLASSIFICATION_TYPE": "U", "NORAD_CAT_ID": 34678, "ELEMENT_SET_NO": 999, "REV_AT_EPOCH": 87542, "BSTAR": 3.2350873e-05, "MEAN_MOTION_DOT": 5.8e-07, "MEAN_MOTION_DDOT": 0}, "tle": {"line1": "1 34678U 93036XY  25358.15018485  .00000058  00000+0  32351-4 0  9994", "line2": "2 34678  74.0378 344.9472 0024771  30.5508  93.9544 14.30066978875428"}}, "geometry": {"type": "Point", "coordinates": [-138.63574082824707, -71.32456311853694]}}, {"type": "Feature", "properties": {"norad_id": 34680, "name": "COSMOS 2251 DEB", "group": "cosmos-2251-debris", "lat": 73.67648572268676, "lon": -175.78609270040283, "alt_km": 685.6790493585031, "timestamp": "2025-12-24T22:42:22.429042+00:00", "meta": {"OBJECT_NAME": "COSMOS 2251 DEB", "OBJECT_ID": "1993-036YA", "EPOCH": "2025-12-23T15:21:33.153120", "MEAN_MOTION": 14.60731514, "ECCENTRICITY": 0.00063275, "INCLINATION": 74.0441, "RA_OF_ASC_NODE": 109.0451, "ARG_OF_PERICENTER": 210.5791, "MEAN_ANOMALY": 210.4022, "EPHEMERIS_TYPE": 0, "CLASSIFICATION_TYPE": "U", "NORAD_CAT_ID": 34680, "ELEMENT_SET_NO": 999, "REV_AT_EPOCH": 88487, "BSTAR": 0.0011410093, "MEAN_MOTION_DOT": 5.54e-05, "MEAN_MOTION_DDOT": 0}, "tle": {"line1": "1 34680U 93036YA  25357.63996705  .00005540  00000+0  11410-2 0  9991", "line2": "2 34680  74.0441 109.0451 0006327 210.5791 210.4022 14.60731514884874"}}, "geometry": {"type": "Point", "coordinates": [-175.78609270040283, 73.67648572268676]}}, {"type": "Feature", "properties": {"norad_id": 34681, "name": "COSMOS 2251 DEB", "group": "cosmos-2251-debris", "lat": -47.42618812778811, "lon": 104.38862592322049, "alt_km": 625.2138619883835, "timestamp": "2025-12-24T22:42:22.429052+00:00", "meta": {"OBJECT_NAME": "COSMOS 2251 DEB", "OBJECT_ID": "1993-036YB", "EPOCH": "2025-12-24T04:35:10.035168", "MEAN_MOTION": 14.83466348, "ECCENTRICITY": 0.00256775, "INCLINATION": 74.0622, "RA_OF_ASC_NODE": 267.7583, "ARG_OF_PERICENTER": 322.9936, "MEAN_ANOMALY": 196.7906, "EPHEMERIS_TYPE": 0, "CLASSIFICATION_TYPE": "U", "NORAD_CAT_ID": 34681, "ELEMENT_SET_NO": 999, "REV_AT_EPOCH": 89440, "BSTAR": 0.0014608063, "MEAN_MOTION_DOT": 0.00012063, "MEAN_MOTION_DDOT": 0}, "tle": {"line1": "1 34681U 93036YB  25358.19108837  .00012063  00000+0  14608-2 0  9995", "line2": "2 34681  74.0622 267.7583 0025677 322.9936 196.7906 14.83466348894404"}}, "geometry": {"type": "Point", "coordinates": [104.38862592322049, -47.42618812778811]}}, {"type": "Feature", "properties": {"norad_id": 34682, "name": "COSMOS 2251 DEB", "group": "cosmos-2251-debris", "lat": -7.414068497161681, "lon": 57.60644553260847, "alt_km": 711.9104772449064, "timestamp": "2025-12-24T22:42:22.429063+00:00", "meta": {"OBJECT_NAME": "COSMOS 2251 DEB", "OBJECT_ID": "1993-036YC", "EPOCH": "2025-12-24T04:46:47.419680", "MEAN_MOTION": 14.58969847, "ECCENTRICITY": 0.00177454, "INCLINATION": 74.0391, "RA_OF_ASC_NODE": 61.1628, "ARG_OF_PERICENTER": 192.9748, "MEAN_ANOMALY": 197.8578, "EPHEMERIS_TYPE": 0, "CLASSIFICATION_TYPE": "U", "NORAD_CAT_ID": 34682, "ELEMENT_SET_NO": 999, "REV_AT_EPOCH": 88853, "BSTAR": 0.00072188524, "MEAN_MOTION_DOT": 3.367e-05, "MEAN_MOTION_DDOT": 0}, "tle": {"line1": "1 34682U 93036YC  25358.19915995  .00003367  00000+0  72189-3 0  9993", "line2": "2 34682  74.0391  61.1628 0017745 192.9748 197.8578 14.58969847888535"}}, "geometry": {"type": "Point", "coordinates": [57.60644553260847, -7.414068497161681]}}, {"type": "Feature", "properties": {"norad_id": 34683, "name": "COSMOS 2251 DEB", "group": "cosmos-2251-debris", "lat": 30.361143284671904, "lon": 78.45375566174876, "alt_km": 687.1154910613586, "timestamp": "2025-12-24T22:42:22.429074+00:00", "meta": {"OBJECT_NAME": "COSMOS 2251 DEB", "OBJECT_ID": "1993-036YD", "EPOCH": "2025-12-24T06:25:36.707808", "MEAN_MOTION": 14.6462771, "ECCENTRICITY": 0.00173813, "INCLINATION": 74.0294, "RA_OF_ASC_NODE": 70.1002, "ARG_OF_PERICENTER": 185.0846, "MEAN_ANOMALY": 231.8067, "EPHEMERIS_TYPE": 0, "CLASSIFICATION_TYPE": "U", "NORAD_CAT_ID": 34683, "ELEMENT_SET_NO": 999, "REV_AT_EPOCH": 88517, "BSTAR": 0.0012488625, "MEAN_MOTION_DOT": 6.627e-05, "MEAN_MOTION_DDOT": 0}, "tle": {"line1": "1 34683U 93036YD  25358.26778597  .00006627  00000+0  12489-2 0  9995", "line2": "2 34683  74.0294  70.1002 0017381 185.0846 231.8067 14.64627710885178"}}, "geometry": {"type": "Point", "coordinates": [78.45375566174876, 30.361143284671904]}}]}